{"type": "FeatureCollection", "features": [ {"type": "Feature", "properties": {"norad_id": 66527, "name": "STARLINK-35935", "group": "last-30-days", "lat": 14.469031881297159, "lon": 53.98626449654246, "alt_km": 413.0912382055967, "timestamp": "2025-12-15T11:38:35.904925+00:00", "meta": {"OBJECT_NAME": "STARLINK-35935", "OBJECT_ID": "2025-265M", "EPOCH": "2025-12-14T13:54:31.915584", "MEAN_MOTION": 15.50619732, "ECCENTRICITY": 0.0002511, "INCLINATION": 43.0052, "RA_OF_ASC_NODE": 43.2118, "ARG_OF_PERICENTER": 259.0654, "MEAN_ANOMALY": 100.9924, "EPHEMERIS_TYPE": 0, "CLASSIFICATION_TYPE": "U", "NORAD_CAT_ID": 66527, "ELEMENT_SET_NO": 999, "REV_AT_EPOCH": 404, "BSTAR": 0.00090006936, "MEAN_MOTION_DOT": 0.00052898, "MEAN_MOTION_DDOT": 0}, "tle": {"line1": "1 66527U 25265M   25348.57953606  .00052898  00000+0  90007-3 0  9999", "line2": "2 66527  43.0052  43.2118 0002511 259.0654 100.9924 15.50619732  4043"}}, "geometry": {"type": "Point", "coordinates": [53.98626449654246, 14.469031881297159]}}, {"type": "Feature", "properties": {"norad_id": 66528, "name": "STARLINK-35928", "group": "last-30-days", "lat": 15.728143185383406, "lon": 55.49533325352804, "alt_km": 412.68057609122934, "timestamp": "2025-12-15T11:38:35.904935+00:00", "meta": {"OBJECT_NAME": "STARLINK-35928", "OBJECT_ID": "2025-265N", "EPOCH": "2025-12-14T10:48:33.377184", "MEAN_MOTION": 15.50607105, "ECCENTRICITY": 0.00020354, "INCLINATION": 43.0013, "RA_OF_ASC_NODE": 43.9604, "ARG_OF_PERICENTER": 254.0147, "MEAN_ANOMALY": 106.0489, "EPHEMERIS_TYPE": 0, "CLASSIFICATION_TYPE": "U", "NORAD_CAT_ID": 66528, "ELEMENT_SET_NO": 999, "REV_AT_EPOCH": 402, "BSTAR": 0.0014303393, "MEAN_MOTION_DOT": 0.00084568, "MEAN_MOTION_DDOT": 0}, "tle": {"line1": "1 66528U 25265N   25348.45038631  .00084568  00000+0  14303-2 0  9992", "line2": "2 66528  43.0013  43.9604 0002035 254.0147 106.0489 15.50607105  4023"}}, "geometry": {"type": "Point", "coordinates": [55.49533325352804, 15.728143185383406]}}, {"type": "Feature", "properties": {"norad_id": 66529, "name": "STARLINK-35933", "group": "last-30-days", "lat": -42.273117911880895, "lon": -64.49895314967927, "alt_km": 446.6417518014696, "timestamp": "2025-12-15T11:38:35.904945+00:00", "meta": {"OBJECT_NAME": "STARLINK-35933", "OBJECT_ID": "2025-265P", "EPOCH": "2025-12-14T20:00:06.000192", "MEAN_MOTION": 15.40704266, "ECCENTRICITY": 0.00011683, "INCLINATION": 43.0008, "RA_OF_ASC_NODE": 41.9599, "ARG_OF_PERICENTER": 266.1936, "MEAN_ANOMALY": 335.2837, "EPHEMERIS_TYPE": 0, "CLASSIFICATION_TYPE": "U", "NORAD_CAT_ID": 66529, "ELEMENT_SET_NO": 999, "REV_AT_EPOCH": 533, "BSTAR": -0.0003231732, "MEAN_MOTION_DOT": -0.0001378, "MEAN_MOTION_DDOT": 0}, "tle": {"line1": "1 66529U 25265P   25348.83340278 -.00013780  00000+0 -32317-3 0  9994", "line2": "2 66529  43.0008  41.9599 0001168 266.1936 335.2837 15.40704266  5338"}}, "geometry": {"type": "Point", "coordinates": [-64.49895314967927, -42.273117911880895]}}, {"type": "Feature", "properties": {"norad_id": 66530, "name": "STARLINK-35961", "group": "last-30-days", "lat": -41.072806412318904, "lon": -31.122267279413705, "alt_km": 446.54353155664285, "timestamp": "2025-12-15T11:38:35.904955+00:00", "meta": {"OBJECT_NAME": "STARLINK-35961", "OBJECT_ID": "2025-265Q", "EPOCH": "2025-12-14T20:00:06.000192", "MEAN_MOTION": 15.40709974, "ECCENTRICITY": 0.00011983, "INCLINATION": 43.0007, "RA_OF_ASC_NODE": 41.8998, "ARG_OF_PERICENTER": 284.487, "MEAN_ANOMALY": 341.8584, "EPHEMERIS_TYPE": 0, "CLASSIFICATION_TYPE": "U", "NORAD_CAT_ID": 66530, "ELEMENT_SET_NO": 999, "REV_AT_EPOCH": 533, "BSTAR": -0.00032025945, "MEAN_MOTION_DOT": -0.00013662, "MEAN_MOTION_DDOT": 0}, "tle": {"line1": "1 66530U 25265Q   25348.83340278 -.00013662  00000+0 -32026-3 0  9992", "line2": "2 66530  43.0007  41.8998 0001198 284.4870 341.8584 15.40709974  5337"}}, "geometry": {"type": "Point", "coordinates": [-31.122267279413705, -41.072806412318904]}}, {"type": "Feature", "properties": {"norad_id": 66531, "name": "STARLINK-35960", "group": "last-30-days", "lat": -31.309628414800795, "lon": -2.663998993858213, "alt_km": 445.93843559880406, "timestamp": "2025-12-15T11:38:35.904965+00:00", "meta": {"OBJECT_NAME": "STARLINK-35960", "OBJECT_ID": "2025-265R", "EPOCH": "2025-12-14T20:00:06.000192", "MEAN_MOTION": 15.40700755, "ECCENTRICITY": 0.0001368, "INCLINATION": 43.0007, "RA_OF_ASC_NODE": 41.8383, "ARG_OF_PERICENTER": 298.2782, "MEAN_ANOMALY": 352.9702, "EPHEMERIS_TYPE": 0, "CLASSIFICATION_TYPE": "U", "NORAD_CAT_ID": 66531, "ELEMENT_SET_NO": 999, "REV_AT_EPOCH": 533, "BSTAR": -0.000210836, "MEAN_MOTION_DOT": -9.1e-05, "MEAN_MOTION_DDOT": 0}, "tle": {"line1": "1 66531U 25265R   25348.83340278 -.00009100  00000+0 -21084-3 0  9997", "line2": "2 66531  43.0007  41.8383 0001368 298.2782 352.9702 15.40700755  5333"}}, "geometry": {"type": "Point", "coordinates": [-2.663998993858213, -31.309628414800795]}}, {"type": "Feature", "properties": {"norad_id": 66532, "name": "STARLINK-35914", "group": "last-30-days", "lat": -16.77447229116721, "lon": 19.149944473444567, "alt_km": 446.426522429686, "timestamp": "2025-12-15T11:38:35.904976+00:00", "meta": {"OBJECT_NAME": "STARLINK-35914", "OBJECT_ID": "2025-265S", "EPOCH": "2025-12-14T20:00:06.000192", "MEAN_MOTION": 15.41117049, "ECCENTRICITY": 0.00012073, "INCLINATION": 43.0003, "RA_OF_ASC_NODE": 41.7793, "ARG_OF_PERICENTER": 289.0681, "MEAN_ANOMALY": 26.8817, "EPHEMERIS_TYPE": 0, "CLASSIFICATION_TYPE": "U", "NORAD_CAT_ID": 66532, "ELEMENT_SET_NO": 999, "REV_AT_EPOCH": 533, "BSTAR": -0.016540467, "MEAN_MOTION_DOT": -0.00652296, "MEAN_MOTION_DDOT": 0}, "tle": {"line1": "1 66532U 25265S   25348.83340278 -.00652296  00000+0 -16540-1 0  9997", "line2": "2 66532  43.0003  41.7793 0001207 289.0681  26.8817 15.41117049  5335"}}, "geometry": {"type": "Point", "coordinates": [19.149944473444567, -16.77447229116721]}}, {"type": "Feature", "properties": {"norad_id": 66533, "name": "STARLINK-35707", "group": "last-30-days", "lat": 21.982772127027886, "lon": 63.55097944248404, "alt_km": 411.06967350248215, "timestamp": "2025-12-15T11:38:35.904988+00:00", "meta": {"OBJECT_NAME": "STARLINK-35707", "OBJECT_ID": "2025-265T", "EPOCH": "2025-12-13T20:51:14.754528", "MEAN_MOTION": 15.50564385, "ECCENTRICITY": 0.00024505, "INCLINATION": 42.9992, "RA_OF_ASC_NODE": 47.3369, "ARG_OF_PERICENTER": 286.6299, "MEAN_ANOMALY": 73.4292, "EPHEMERIS_TYPE": 0, "CLASSIFICATION_TYPE": "U", "NORAD_CAT_ID": 66533, "ELEMENT_SET_NO": 999, "REV_AT_EPOCH": 393, "BSTAR": 0.0012610474, "MEAN_MOTION_DOT": 0.00074308, "MEAN_MOTION_DDOT": 0}, "tle": {"line1": "1 66533U 25265T   25347.86892077  .00074308  00000+0  12610-2 0  9994", "line2": "2 66533  42.9992  47.3369 0002450 286.6299  73.4292 15.50564385  3939"}}, "geometry": {"type": "Point", "coordinates": [63.55097944248404, 21.982772127027886]}}, {"type": "Feature", "properties": {"norad_id": 66534, "name": "STARLINK-35976", "group": "last-30-days", "lat": 23.038266789813456, "lon": 65.02926818486704, "alt_km": 411.6185365407546, "timestamp": "2025-12-15T11:38:35.905001+00:00", "meta": {"OBJECT_NAME": "STARLINK-35976", "OBJECT_ID": "2025-265U", "EPOCH": "2025-12-14T10:45:35.575488", "MEAN_MOTION": 15.50624158, "ECCENTRICITY": 0.00022398, "INCLINATION": 43.0001, "RA_OF_ASC_NODE": 43.9438, "ARG_OF_PERICENTER": 260.0804, "MEAN_ANOMALY": 99.9803, "EPHEMERIS_TYPE": 0, "CLASSIFICATION_TYPE": "U", "NORAD_CAT_ID": 66534, "ELEMENT_SET_NO": 999, "REV_AT_EPOCH": 402, "BSTAR": 0.0015599964, "MEAN_MOTION_DOT": 0.00092415, "MEAN_MOTION_DDOT": 0}, "tle": {"line1": "1 66534U 25265U   25348.44832842  .00092415  00000+0  15600-2 0  9995", "line2": "2 66534  43.0001  43.9438 0002239 260.0804  99.9803 15.50624158  4022"}}, "geometry": {"type": "Point", "coordinates": [65.02926818486704, 23.038266789813456]}}, {"type": "Feature", "properties": {"norad_id": 66535, "name": "STARLINK-35514", "group": "last-30-days", "lat": 24.346298271739638, "lon": 66.92068445467775, "alt_km": 410.9741691798954, "timestamp": "2025-12-15T11:38:35.905011+00:00", "meta": {"OBJECT_NAME": "STARLINK-35514", "OBJECT_ID": "2025-265V", "EPOCH": "2025-12-14T10:45:04.309920", "MEAN_MOTION": 15.50620505, "ECCENTRICITY": 0.00016527, "INCLINATION": 43.0008, "RA_OF_ASC_NODE": 43.9405, "ARG_OF_PERICENTER": 257.8771, "MEAN_ANOMALY": 102.1904, "EPHEMERIS_TYPE": 0, "CLASSIFICATION_TYPE": "U", "NORAD_CAT_ID": 66535, "ELEMENT_SET_NO": 999, "REV_AT_EPOCH": 402, "BSTAR": 0.0022722023, "MEAN_MOTION_DOT": 0.0013549, "MEAN_MOTION_DDOT": 0}, "tle": {"line1": "1 66535U 25265V   25348.44796655  .00135490  00000+0  22722-2 0  9991", "line2": "2 66535  43.0008  43.9405 0001652 257.8771 102.1904 15.50620505  4020"}}, "geometry": {"type": "Point", "coordinates": [66.92068445467775, 24.346298271739638]}}, {"type": "Feature", "properties": {"norad_id": 66536, "name": "STARLINK-35640", "group": "last-30-days", "lat": 25.38113258431172, "lon": 68.47192823424936, "alt_km": 411.03177943596256, "timestamp": "2025-12-15T11:38:35.905021+00:00", "meta": {"OBJECT_NAME": "STARLINK-35640", "OBJECT_ID": "2025-265W", "EPOCH": "2025-12-14T10:44:34.667808", "MEAN_MOTION": 15.50612598, "ECCENTRICITY": 0.00014008, "INCLINATION": 43, "RA_OF_ASC_NODE": 43.9374, "ARG_OF_PERICENTER": 251.2373, "MEAN_ANOMALY": 108.8335, "EPHEMERIS_TYPE": 0, "CLASSIFICATION_TYPE": "U", "NORAD_CAT_ID": 66536, "ELEMENT_SET_NO": 999, "REV_AT_EPOCH": 402, "BSTAR": 0.0016654559, "MEAN_MOTION_DOT": 0.00098721, "MEAN_MOTION_DDOT": 0}, "tle": {"line1": "1 66536U 25265W   25348.44762347  .00098721  00000+0  16655-2 0  9996", "line2": "2 66536  43.0000  43.9374 0001400 251.2373 108.8335 15.50612598  4029"}}, "geometry": {"type": "Point", "coordinates": [68.47192823424936, 25.38113258431172]}}]}